{
  "norad_id": 47303,
  "name": "WEINA 2",
  "history": [
    {
      "epoch": "2026-04-30T15:00:11.723616Z",
      "apogee_km": 679.081328090987,
      "perigee_km": 675.3297202571821,
      "latitude_deg": -1.0297909028946732e-05,
      "longitude_deg": -72.83194474149884,
      "height_km": 678.45628224095,
      "semi_major_axis_km": 7055.342524174084,
      "eccentricity": 0.00026587,
      "inclination_deg": 98.0602,
      "raan_deg": 10.7861,
      "arg_perigee_deg": 21.647,
      "mean_anomaly_deg": 338.4845,
      "mean_motion_rev_day": 14.64959464
    },
    {
      "epoch": "2026-05-02T12:54:07.932384Z",
      "apogee_km": 678.9530965236581,
      "perigee_km": 675.4296655301732,
      "latitude_deg": -5.3466712082446955e-05,
      "longitude_deg": -41.32724734815843,
      "height_km": 678.5112782618581,
      "semi_major_axis_km": 7055.328381026916,
      "eccentricity": 0.0002497,
      "inclination_deg": 98.0598,
      "raan_deg": 12.66,
      "arg_perigee_deg": 18.0788,
      "mean_anomaly_deg": 342.0503,
      "mean_motion_rev_day": 14.64963869
    },
    {
      "epoch": "2026-05-03T20:02:52.212192Z",
      "apogee_km": 678.8804009392297,
      "perigee_km": 675.483970283276,
      "latitude_deg": -3.6122421179010536e-05,
      "longitude_deg": -148.5191582413384,
      "height_km": 678.5370943856052,
      "semi_major_axis_km": 7055.319185611253,
      "eccentricity": 0.0002407,
      "inclination_deg": 98.0593,
      "raan_deg": 13.9317,
      "arg_perigee_deg": 15.0469,
      "mean_anomaly_deg": 345.0805,
      "mean_motion_rev_day": 14.64966733
    }
  ]
}